<?xml version='1.0' encoding='UTF-8'?>
<kml xmlns="http://www.opengis.net/kml/2.2">
<Document>
   <Placemark>
   <name>ECMKV</name>
   <Style><LineStyle><color>ffff0000</color><width>2</width></LineStyle></Style>
   <LineString>
   <coordinates>
   20.306944,44.819444,0 2.0784,41.2969,0
   </coordinates>
   </LineString>
   </Placemark>
   <Placemark>
   <name>ECJGM</name>
   <Style><LineStyle><color>ffff0000</color><width>2</width></LineStyle></Style>
   <LineString>
   <coordinates>
   -2.275,53.353889,0 2.0784,41.2969,0
   </coordinates>
   </LineString>
   </Placemark>
   <Placemark>
   <name>ECLOB</name>
   <Style><LineStyle><color>ff00ffff</color><width>2</width></LineStyle></Style>
   <LineString>
   <coordinates>
   14.4775,35.8575,0 2.0784,41.2969,0
   </coordinates>
   </LineString>
   </Placemark>
   <Placemark>
   <name>ECLVC</name>
   <Style><LineStyle><color>ff00ffff</color><width>2</width></LineStyle></Style>
   <LineString>
   <coordinates>
   22.970833,40.519722,0 2.0784,41.2969,0
   </coordinates>
   </LineString>
   </Placemark>
   <Placemark>
   <name>DALEC</name>
   <Style><LineStyle><color>ff00ffff</color><width>2</width></LineStyle></Style>
   <LineString>
   <coordinates>
   4.484444,50.901389,0 2.0784,41.2969,0
   </coordinates>
   </LineString>
   </Placemark>
   <Placemark>
   <name>N327UP</name>
   <Style><LineStyle><color>ff00ffff</color><width>2</width></LineStyle></Style>
   <LineString>
   <coordinates>
   7.142778,50.865833,0 2.0784,41.2969,0
   </coordinates>
   </LineString>
   </Placemark>
   <Placemark>
   <name>ECMKN</name>
   <Style><LineStyle><color>ff00ffff</color><width>2</width></LineStyle></Style>
   <LineString>
   <coordinates>
   25.479167,36.399167,0 2.0784,41.2969,0
   </coordinates>
   </LineString>
   </Placemark>
   <Placemark>
   <name>DALEN</name>
   <Style><LineStyle><color>ff00ffff</color><width>2</width></LineStyle></Style>
   <LineString>
   <coordinates>
   12.236389,51.423889,0 2.0784,41.2969,0
   </coordinates>
   </LineString>
   </Placemark>
   <Placemark>
   <name>ECMKT</name>
   <Style><LineStyle><color>ff00ffff</color><width>2</width></LineStyle></Style>
   <LineString>
   <coordinates>
   23.944444,37.936667,0 2.0784,41.2969,0
   </coordinates>
   </LineString>
   </Placemark>
   <Placemark>
   <name>OEIBZ</name>
   <Style><LineStyle><color>ff00ffff</color><width>2</width></LineStyle></Style>
   <LineString>
   <coordinates>
   5.442778,50.636389,0 2.0784,41.2969,0
   </coordinates>
   </LineString>
   </Placemark>
   <Placemark>
   <name>N761AJ</name>
   <Style><LineStyle><color>ffff0000</color><width>2</width></LineStyle></Style>
   <LineString>
   <coordinates>
   -73.778333,40.640278,0 2.0784,41.2969,0
   </coordinates>
   </LineString>
   </Placemark>
   <Placemark>
   <name>ECKRH</name>
   <Style><LineStyle><color>ffff0000</color><width>2</width></LineStyle></Style>
   <LineString>
   <coordinates>
   26.085,44.571111,0 2.0784,41.2969,0
   </coordinates>
   </LineString>
   </Placemark>
   <Placemark>
   <name>PHXRD</name>
   <Style><LineStyle><color>ff00ffff</color><width>2</width></LineStyle></Style>
   <LineString>
   <coordinates>
   4.764167,52.308056,0 2.0784,41.2969,0
   </coordinates>
   </LineString>
   </Placemark>
   <Placemark>
   <name>ECMAI</name>
   <Style><LineStyle><color>ff00ffff</color><width>2</width></LineStyle></Style>
   <LineString>
   <coordinates>
   -22.605556,63.985,0 2.0784,41.2969,0
   </coordinates>
   </LineString>
   </Placemark>
   <Placemark>
   <name>GRAJG</name>
   <Style><LineStyle><color>ff00ffff</color><width>2</width></LineStyle></Style>
   <LineString>
   <coordinates>
   2.862222,51.198889,0 2.0784,41.2969,0
   </coordinates>
   </LineString>
   </Placemark>
   <Placemark>
   <name>OOJEM</name>
   <Style><LineStyle><color>ff00ffff</color><width>2</width></LineStyle></Style>
   <LineString>
   <coordinates>
   4.460278,51.189444,0 2.0784,41.2969,0
   </coordinates>
   </LineString>
   </Placemark>
   <Placemark>
   <name>ECLZZ</name>
   <Style><LineStyle><color>ffff0000</color><width>2</width></LineStyle></Style>
   <LineString>
   <coordinates>
   39.17,45.034722,0 2.0784,41.2969,0
   </coordinates>
   </LineString>
   </Placemark>
   <Placemark>
   <name>HALXH</name>
   <Style><LineStyle><color>ff00ffff</color><width>2</width></LineStyle></Style>
   <LineString>
   <coordinates>
   19.261944,47.439444,0 2.0784,41.2969,0
   </coordinates>
   </LineString>
   </Placemark>
   <Placemark>
   <name>DAEBP</name>
   <Style><LineStyle><color>ff00ffff</color><width>2</width></LineStyle></Style>
   <LineString>
   <coordinates>
   11.786111,48.353889,0 2.0784,41.2969,0
   </coordinates>
   </LineString>
   </Placemark>
   <Placemark>
   <name>OOSSW</name>
   <Style><LineStyle><color>ff00ffff</color><width>2</width></LineStyle></Style>
   <LineString>
   <coordinates>
   4.484444,50.901389,0 2.0784,41.2969,0
   </coordinates>
   </LineString>
   </Placemark>
   <Placemark>
   <name>VQBTN</name>
   <Style><LineStyle><color>ffff0000</color><width>2</width></LineStyle></Style>
   <LineString>
   <coordinates>
   37.413056,55.9725,0 2.0784,41.2969,0
   </coordinates>
   </LineString>
   </Placemark>
   <Placemark>
   <name>OHLZD</name>
   <Style><LineStyle><color>ff00ffff</color><width>2</width></LineStyle></Style>
   <LineString>
   <coordinates>
   24.963333,60.317222,0 2.0784,41.2969,0
   </coordinates>
   </LineString>
   </Placemark>
   <Placemark>
   <name>DABZA</name>
   <Style><LineStyle><color>ff00ffff</color><width>2</width></LineStyle></Style>
   <LineString>
   <coordinates>
   6.757222,51.280833,0 2.0784,41.2969,0
   </coordinates>
   </LineString>
   </Placemark>
   <Placemark>
   <name>N823NW</name>
   <Style><LineStyle><color>ffff0000</color><width>2</width></LineStyle></Style>
   <LineString>
   <coordinates>
   -84.433333,33.633333,0 2.0784,41.2969,0
   </coordinates>
   </LineString>
   </Placemark>
   <Placemark>
   <name>EIENM</name>
   <Style><LineStyle><color>ff00ffff</color><width>2</width></LineStyle></Style>
   <LineString>
   <coordinates>
   13.500556,52.362222,0 2.0784,41.2969,0
   </coordinates>
   </LineString>
   </Placemark>
   <Placemark>
   <name>ECMEA</name>
   <Style><LineStyle><color>ffff0000</color><width>2</width></LineStyle></Style>
   <LineString>
   <coordinates>
   30.2625,59.800278,0 2.0784,41.2969,0
   </coordinates>
   </LineString>
   </Placemark>
   <Placemark>
   <name>ECLZN</name>
   <Style><LineStyle><color>ff00ffff</color><width>2</width></LineStyle></Style>
   <LineString>
   <coordinates>
   25.347222,37.437222,0 2.0784,41.2969,0
   </coordinates>
   </LineString>
   </Placemark>
   <Placemark>
   <name>DAGWT</name>
   <Style><LineStyle><color>ff00ffff</color><width>2</width></LineStyle></Style>
   <LineString>
   <coordinates>
   9.683611,52.460278,0 2.0784,41.2969,0
   </coordinates>
   </LineString>
   </Placemark>
   <Placemark>
   <name>PHHSK</name>
   <Style><LineStyle><color>ff00ffff</color><width>2</width></LineStyle></Style>
   <LineString>
   <coordinates>
   5.374444,51.45,0 2.0784,41.2969,0
   </coordinates>
   </LineString>
   </Placemark>
   <Placemark>
   <name>ECMGE</name>
   <Style><LineStyle><color>ffff0000</color><width>2</width></LineStyle></Style>
   <LineString>
   <coordinates>
   37.906389,55.408611,0 2.0784,41.2969,0
   </coordinates>
   </LineString>
   </Placemark>
   <Placemark>
   <name>DAIPZ</name>
   <Style><LineStyle><color>ff00ffff</color><width>2</width></LineStyle></Style>
   <LineString>
   <coordinates>
   6.757222,51.280833,0 2.0784,41.2969,0
   </coordinates>
   </LineString>
   </Placemark>
   <Placemark>
   <name>GEUUC</name>
   <Style><LineStyle><color>ffff0000</color><width>2</width></LineStyle></Style>
   <LineString>
   <coordinates>
   -0.461389,51.4775,0 2.0784,41.2969,0
   </coordinates>
   </LineString>
   </Placemark>
   <Placemark>
   <name>ECMEQ</name>
   <Style><LineStyle><color>ffff0000</color><width>2</width></LineStyle></Style>
   <LineString>
   <coordinates>
   35.49,33.819167,0 2.0784,41.2969,0
   </coordinates>
   </LineString>
   </Placemark>
   <Placemark>
   <name>OELBR</name>
   <Style><LineStyle><color>ff00ffff</color><width>2</width></LineStyle></Style>
   <LineString>
   <coordinates>
   16.569722,48.110278,0 2.0784,41.2969,0
   </coordinates>
   </LineString>
   </Placemark>
   <Placemark>
   <name>N76054</name>
   <Style><LineStyle><color>ffff0000</color><width>2</width></LineStyle></Style>
   <LineString>
   <coordinates>
   -74.168333,40.696667,0 2.0784,41.2969,0
   </coordinates>
   </LineString>
   </Placemark>
   <Placemark>
   <name>9VSWD</name>
   <Style><LineStyle><color>ffff0000</color><width>2</width></LineStyle></Style>
   <LineString>
   <coordinates>
   -46.47,-23.433333,0 2.0784,41.2969,0
   </coordinates>
   </LineString>
   </Placemark>
   <Placemark>
   <name>OYKBP</name>
   <Style><LineStyle><color>ff00ffff</color><width>2</width></LineStyle></Style>
   <LineString>
   <coordinates>
   12.656111,55.618056,0 2.0784,41.2969,0
   </coordinates>
   </LineString>
   </Placemark>
   <Placemark>
   <name>DAGWI</name>
   <Style><LineStyle><color>ff00ffff</color><width>2</width></LineStyle></Style>
   <LineString>
   <coordinates>
   7.142778,50.865833,0 2.0784,41.2969,0
   </coordinates>
   </LineString>
   </Placemark>
   <Placemark>
   <name>DAIDL</name>
   <Style><LineStyle><color>ff00ffff</color><width>2</width></LineStyle></Style>
   <LineString>
   <coordinates>
   8.570556,50.033333,0 2.0784,41.2969,0
   </coordinates>
   </LineString>
   </Placemark>
   <Placemark>
   <name>ECJTR</name>
   <Style><LineStyle><color>ff00ffff</color><width>2</width></LineStyle></Style>
   <LineString>
   <coordinates>
   4.764167,52.308056,0 2.0784,41.2969,0
   </coordinates>
   </LineString>
   </Placemark>
   <Placemark>
   <name>EIFRF</name>
   <Style><LineStyle><color>ffff0000</color><width>2</width></LineStyle></Style>
   <LineString>
   <coordinates>
   -6.27,53.421389,0 2.0784,41.2969,0
   </coordinates>
   </LineString>
   </Placemark>
   <Placemark>
   <name>GZBAI</name>
   <Style><LineStyle><color>ffff0000</color><width>2</width></LineStyle></Style>
   <LineString>
   <coordinates>
   -0.190278,51.148056,0 2.0784,41.2969,0
   </coordinates>
   </LineString>
   </Placemark>
   <Placemark>
   <name>TCJNZ</name>
   <Style><LineStyle><color>ffff0000</color><width>2</width></LineStyle></Style>
   <LineString>
   <coordinates>
   28.814167,40.976111,0 2.0784,41.2969,0
   </coordinates>
   </LineString>
   </Placemark>
   <Placemark>
   <name>GEZDU</name>
   <Style><LineStyle><color>ff00ffff</color><width>2</width></LineStyle></Style>
   <LineString>
   <coordinates>
   13.500556,52.362222,0 2.0784,41.2969,0
   </coordinates>
   </LineString>
   </Placemark>
   <Placemark>
   <name>B5913</name>
   <Style><LineStyle><color>ff00ffff</color><width>2</width></LineStyle></Style>
   <LineString>
   <coordinates>
   16.569722,48.110278,0 2.0784,41.2969,0
   </coordinates>
   </LineString>
   </Placemark>
   <Placemark>
   <name>OELED</name>
   <Style><LineStyle><color>ff00ffff</color><width>2</width></LineStyle></Style>
   <LineString>
   <coordinates>
   16.569722,48.110278,0 2.0784,41.2969,0
   </coordinates>
   </LineString>
   </Placemark>
   <Placemark>
   <name>GZBAH</name>
   <Style><LineStyle><color>ffff0000</color><width>2</width></LineStyle></Style>
   <LineString>
   <coordinates>
   -1.748056,52.453889,0 2.0784,41.2969,0
   </coordinates>
   </LineString>
   </Placemark>
   <Placemark>
   <name>GEZTG</name>
   <Style><LineStyle><color>ffff0000</color><width>2</width></LineStyle></Style>
   <LineString>
   <coordinates>
   -2.719167,51.382778,0 2.0784,41.2969,0
   </coordinates>
   </LineString>
   </Placemark>
   <Placemark>
   <name>EIDEJ</name>
   <Style><LineStyle><color>ffff0000</color><width>2</width></LineStyle></Style>
   <LineString>
   <coordinates>
   -6.27,53.421389,0 2.0784,41.2969,0
   </coordinates>
   </LineString>
   </Placemark>
   <Placemark>
   <name>CGHLQ</name>
   <Style><LineStyle><color>ffff0000</color><width>2</width></LineStyle></Style>
   <LineString>
   <coordinates>
   -73.741389,45.468056,0 2.0784,41.2969,0
   </coordinates>
   </LineString>
   </Placemark>
   <Placemark>
   <name>GEZPC</name>
   <Style><LineStyle><color>ffff0000</color><width>2</width></LineStyle></Style>
   <LineString>
   <coordinates>
   -2.849722,53.333611,0 2.0784,41.2969,0
   </coordinates>
   </LineString>
   </Placemark>
   <Placemark>
   <name>PHBXF</name>
   <Style><LineStyle><color>ff00ffff</color><width>2</width></LineStyle></Style>
   <LineString>
   <coordinates>
   4.764167,52.308056,0 2.0784,41.2969,0
   </coordinates>
   </LineString>
   </Placemark>
   <Placemark>
   <name>EIEBK</name>
   <Style><LineStyle><color>ffff0000</color><width>2</width></LineStyle></Style>
   <LineString>
   <coordinates>
   -2.275,53.353889,0 2.0784,41.2969,0
   </coordinates>
   </LineString>
   </Placemark>
   <Placemark>
   <name>EIDPM</name>
   <Style><LineStyle><color>ffff0000</color><width>2</width></LineStyle></Style>
   <LineString>
   <coordinates>
   -3.3725,55.95,0 2.0784,41.2969,0
   </coordinates>
   </LineString>
   </Placemark>
   <Placemark>
   <name>ECMBK</name>
   <Style><LineStyle><color>ffff0000</color><width>2</width></LineStyle></Style>
   <LineString>
   <coordinates>
   49.280278,55.606944,0 2.0784,41.2969,0
   </coordinates>
   </LineString>
   </Placemark>
   <Placemark>
   <name>GEZBD</name>
   <Style><LineStyle><color>ffff0000</color><width>2</width></LineStyle></Style>
   <LineString>
   <coordinates>
   -6.215833,54.6575,0 2.0784,41.2969,0
   </coordinates>
   </LineString>
   </Placemark>
   <Placemark>
   <name>EIDHP</name>
   <Style><LineStyle><color>ffff0000</color><width>2</width></LineStyle></Style>
   <LineString>
   <coordinates>
   -1.748056,52.453889,0 2.0784,41.2969,0
   </coordinates>
   </LineString>
   </Placemark>
   <Placemark>
   <name>EIDWK</name>
   <Style><LineStyle><color>ff00ffff</color><width>2</width></LineStyle></Style>
   <LineString>
   <coordinates>
   4.484444,50.901389,0 2.0784,41.2969,0
   </coordinates>
   </LineString>
   </Placemark>
   <Placemark>
   <name>YRBGI</name>
   <Style><LineStyle><color>ffff0000</color><width>2</width></LineStyle></Style>
   <LineString>
   <coordinates>
   26.085,44.571111,0 2.0784,41.2969,0
   </coordinates>
   </LineString>
   </Placemark>
   <Placemark>
   <name>YRBAP</name>
   <Style><LineStyle><color>ffff0000</color><width>2</width></LineStyle></Style>
   <LineString>
   <coordinates>
   26.085,44.571111,0 2.0784,41.2969,0
   </coordinates>
   </LineString>
   </Placemark>
   <Placemark>
   <name>ECLUT</name>
   <Style><LineStyle><color>ffff0000</color><width>2</width></LineStyle></Style>
   <LineString>
   <coordinates>
   34.885556,32.009444,0 2.0784,41.2969,0
   </coordinates>
   </LineString>
   </Placemark>
   <Placemark>
   <name>GEUUO</name>
   <Style><LineStyle><color>ffff0000</color><width>2</width></LineStyle></Style>
   <LineString>
   <coordinates>
   -0.461389,51.4775,0 2.0784,41.2969,0
   </coordinates>
   </LineString>
   </Placemark>
   <Placemark>
   <name>N790AN</name>
   <Style><LineStyle><color>ffff0000</color><width>2</width></LineStyle></Style>
   <LineString>
   <coordinates>
   -80.283333,25.8,0 2.0784,41.2969,0
   </coordinates>
   </LineString>
   </Placemark>
   <Placemark>
   <name>GEZWN</name>
   <Style><LineStyle><color>ffff0000</color><width>2</width></LineStyle></Style>
   <LineString>
   <coordinates>
   -0.190278,51.148056,0 2.0784,41.2969,0
   </coordinates>
   </LineString>
   </Placemark>
   <Placemark>
   <name>SXDGQ</name>
   <Style><LineStyle><color>ff00ffff</color><width>2</width></LineStyle></Style>
   <LineString>
   <coordinates>
   23.944444,37.936667,0 2.0784,41.2969,0
   </coordinates>
   </LineString>
   </Placemark>
   <Placemark>
   <name>ECMMU</name>
   <Style><LineStyle><color>ffff0000</color><width>2</width></LineStyle></Style>
   <LineString>
   <coordinates>
   -15.386667,27.931944,0 2.0784,41.2969,0
   </coordinates>
   </LineString>
   </Placemark>
   <Placemark>
   <name>LNRNO</name>
   <Style><LineStyle><color>ff00ffff</color><width>2</width></LineStyle></Style>
   <LineString>
   <coordinates>
   11.083889,60.202778,0 2.0784,41.2969,0
   </coordinates>
   </LineString>
   </Placemark>
   <Placemark>
   <name>GOZBE</name>
   <Style><LineStyle><color>ffff0000</color><width>2</width></LineStyle></Style>
   <LineString>
   <coordinates>
   -2.275,53.353889,0 2.0784,41.2969,0
   </coordinates>
   </LineString>
   </Placemark>
   <Placemark>
   <name>SPLND</name>
   <Style><LineStyle><color>ff00ffff</color><width>2</width></LineStyle></Style>
   <LineString>
   <coordinates>
   20.967222,52.165833,0 2.0784,41.2969,0
   </coordinates>
   </LineString>
   </Placemark>
   <Placemark>
   <name>N290AY</name>
   <Style><LineStyle><color>ffff0000</color><width>2</width></LineStyle></Style>
   <LineString>
   <coordinates>
   -75.245,39.87,0 2.0784,41.2969,0
   </coordinates>
   </LineString>
   </Placemark>
   <Placemark>
   <name>VQBHK</name>
   <Style><LineStyle><color>ffff0000</color><width>2</width></LineStyle></Style>
   <LineString>
   <coordinates>
   37.413056,55.9725,0 2.0784,41.2969,0
   </coordinates>
   </LineString>
   </Placemark>
   <Placemark>
   <name>ECMMH</name>
   <Style><LineStyle><color>ffff0000</color><width>2</width></LineStyle></Style>
   <LineString>
   <coordinates>
   -16.341667,28.482778,0 2.0784,41.2969,0
   </coordinates>
   </LineString>
   </Placemark>
   <Placemark>
   <name>VPBWG</name>
   <Style><LineStyle><color>ffff0000</color><width>2</width></LineStyle></Style>
   <LineString>
   <coordinates>
   30.2625,59.800278,0 2.0784,41.2969,0
   </coordinates>
   </LineString>
   </Placemark>
   <Placemark>
   <name>ECMBY</name>
   <Style><LineStyle><color>ffff0000</color><width>2</width></LineStyle></Style>
   <LineString>
   <coordinates>
   16.068889,45.743056,0 2.0784,41.2969,0
   </coordinates>
   </LineString>
   </Placemark>
   <Placemark>
   <name>DAIDF</name>
   <Style><LineStyle><color>ff00ffff</color><width>2</width></LineStyle></Style>
   <LineString>
   <coordinates>
   11.786111,48.353889,0 2.0784,41.2969,0
   </coordinates>
   </LineString>
   </Placemark>
   <Placemark>
   <name>EIDCJ</name>
   <Style><LineStyle><color>ffff0000</color><width>2</width></LineStyle></Style>
   <LineString>
   <coordinates>
   0.235,51.885,0 2.0784,41.2969,0
   </coordinates>
   </LineString>
   </Placemark>
   <Placemark>
   <name>LNNGP</name>
   <Style><LineStyle><color>ff00ffff</color><width>2</width></LineStyle></Style>
   <LineString>
   <coordinates>
   11.083889,60.202778,0 2.0784,41.2969,0
   </coordinates>
   </LineString>
   </Placemark>
   <Placemark>
   <name>GEZBI</name>
   <Style><LineStyle><color>ffff0000</color><width>2</width></LineStyle></Style>
   <LineString>
   <coordinates>
   -0.368333,51.874722,0 2.0784,41.2969,0
   </coordinates>
   </LineString>
   </Placemark>
   <Placemark>
   <name>ECLQM</name>
   <Style><LineStyle><color>ff00ffff</color><width>2</width></LineStyle></Style>
   <LineString>
   <coordinates>
   4.484444,50.901389,0 2.0784,41.2969,0
   </coordinates>
   </LineString>
   </Placemark>
   <Placemark>
   <name>GCELG</name>
   <Style><LineStyle><color>ffff0000</color><width>2</width></LineStyle></Style>
   <LineString>
   <coordinates>
   -2.275,53.353889,0 2.0784,41.2969,0
   </coordinates>
   </LineString>
   </Placemark>
   <Placemark>
   <name>DAISG</name>
   <Style><LineStyle><color>ff00ffff</color><width>2</width></LineStyle></Style>
   <LineString>
   <coordinates>
   8.570556,50.033333,0 2.0784,41.2969,0
   </coordinates>
   </LineString>
   </Placemark>
   <Placemark>
   <name>N900JG</name>
   <Style><LineStyle><color>ffff0000</color><width>2</width></LineStyle></Style>
   <LineString>
   <coordinates>
   34.885556,32.009444,0 2.0784,41.2969,0
   </coordinates>
   </LineString>
   </Placemark>
   <Placemark>
   <name>LNDYW</name>
   <Style><LineStyle><color>ff00ffff</color><width>2</width></LineStyle></Style>
   <LineString>
   <coordinates>
   12.656111,55.618056,0 2.0784,41.2969,0
   </coordinates>
   </LineString>
   </Placemark>
   <Placemark>
   <name>CFIYE</name>
   <Style><LineStyle><color>ffff0000</color><width>2</width></LineStyle></Style>
   <LineString>
   <coordinates>
   -79.630556,43.677222,0 2.0784,41.2969,0
   </coordinates>
   </LineString>
   </Placemark>
   <Placemark>
   <name>ECMJC</name>
   <Style><LineStyle><color>ffff0000</color><width>2</width></LineStyle></Style>
   <LineString>
   <coordinates>
   16.298056,43.538889,0 2.0784,41.2969,0
   </coordinates>
   </LineString>
   </Placemark>
   <Placemark>
   <name>ECLQK</name>
   <Style><LineStyle><color>ffff0000</color><width>2</width></LineStyle></Style>
   <LineString>
   <coordinates>
   34.885556,32.009444,0 2.0784,41.2969,0
   </coordinates>
   </LineString>
   </Placemark>
   <Placemark>
   <name>CNRGG</name>
   <Style><LineStyle><color>ffff0000</color><width>2</width></LineStyle></Style>
   <LineString>
   <coordinates>
   -7.581667,33.364167,0 2.0784,41.2969,0
   </coordinates>
   </LineString>
   </Placemark>
   <Placemark>
   <name>ECMJR</name>
   <Style><LineStyle><color>ffff0000</color><width>2</width></LineStyle></Style>
   <LineString>
   <coordinates>
   -0.368333,51.874722,0 2.0784,41.2969,0
   </coordinates>
   </LineString>
   </Placemark>
   <Placemark>
   <name>ECLQL</name>
   <Style><LineStyle><color>ff00ffff</color><width>2</width></LineStyle></Style>
   <LineString>
   <coordinates>
   11.786111,48.353889,0 2.0784,41.2969,0
   </coordinates>
   </LineString>
   </Placemark>
   <Placemark>
   <name>GGDFK</name>
   <Style><LineStyle><color>ffff0000</color><width>2</width></LineStyle></Style>
   <LineString>
   <coordinates>
   -1.660833,53.866111,0 2.0784,41.2969,0
   </coordinates>
   </LineString>
   </Placemark>
   <Placemark>
   <name>ECLRG</name>
   <Style><LineStyle><color>ff00ffff</color><width>2</width></LineStyle></Style>
   <LineString>
   <coordinates>
   12.236389,51.423889,0 2.0784,41.2969,0
   </coordinates>
   </LineString>
   </Placemark>
   <Placemark>
   <name>N803NW</name>
   <Style><LineStyle><color>ffff0000</color><width>2</width></LineStyle></Style>
   <LineString>
   <coordinates>
   -73.778333,40.640278,0 2.0784,41.2969,0
   </coordinates>
   </LineString>
   </Placemark>
   <Placemark>
   <name>GEUYC</name>
   <Style><LineStyle><color>ffff0000</color><width>2</width></LineStyle></Style>
   <LineString>
   <coordinates>
   -0.461389,51.4775,0 2.0784,41.2969,0
   </coordinates>
   </LineString>
   </Placemark>
   <Placemark>
   <name>N283AY</name>
   <Style><LineStyle><color>ffff0000</color><width>2</width></LineStyle></Style>
   <LineString>
   <coordinates>
   -80.95,35.216667,0 2.0784,41.2969,0
   </coordinates>
   </LineString>
   </Placemark>
   <Placemark>
   <name>ECMGF</name>
   <Style><LineStyle><color>ff00ffff</color><width>2</width></LineStyle></Style>
   <LineString>
   <coordinates>
   8.570556,50.033333,0 2.0784,41.2969,0
   </coordinates>
   </LineString>
   </Placemark>
   <Placemark>
   <name>ECMLD</name>
   <Style><LineStyle><color>ff00ffff</color><width>2</width></LineStyle></Style>
   <LineString>
   <coordinates>
   4.764167,52.308056,0 2.0784,41.2969,0
   </coordinates>
   </LineString>
   </Placemark>
   <Placemark>
   <name>GEZWZ</name>
   <Style><LineStyle><color>ffff0000</color><width>2</width></LineStyle></Style>
   <LineString>
   <coordinates>
   -0.190278,51.148056,0 2.0784,41.2969,0
   </coordinates>
   </LineString>
   </Placemark>
   <Placemark>
   <name>PHBXP</name>
   <Style><LineStyle><color>ff00ffff</color><width>2</width></LineStyle></Style>
   <LineString>
   <coordinates>
   4.764167,52.308056,0 2.0784,41.2969,0
   </coordinates>
   </LineString>
   </Placemark>
   <Placemark>
   <name>CFDAT</name>
   <Style><LineStyle><color>ffff0000</color><width>2</width></LineStyle></Style>
   <LineString>
   <coordinates>
   -73.741389,45.468056,0 2.0784,41.2969,0
   </coordinates>
   </LineString>
   </Placemark>
   <Placemark>
   <name>EIDHG</name>
   <Style><LineStyle><color>ff00ffff</color><width>2</width></LineStyle></Style>
   <LineString>
   <coordinates>
   9.988333,53.630278,0 2.0784,41.2969,0
   </coordinates>
   </LineString>
   </Placemark>
   <Placemark>
   <name>CGTSW</name>
   <Style><LineStyle><color>ffff0000</color><width>2</width></LineStyle></Style>
   <LineString>
   <coordinates>
   -79.630556,43.677222,0 2.0784,41.2969,0
   </coordinates>
   </LineString>
   </Placemark>
   <Placemark>
   <name>ECLZO</name>
   <Style><LineStyle><color>ffff0000</color><width>2</width></LineStyle></Style>
   <LineString>
   <coordinates>
   -0.190278,51.148056,0 2.0784,41.2969,0
   </coordinates>
   </LineString>
   </Placemark>
   <Placemark>
   <name>N76062</name>
   <Style><LineStyle><color>ffff0000</color><width>2</width></LineStyle></Style>
   <LineString>
   <coordinates>
   -77.456667,38.945,0 2.0784,41.2969,0
   </coordinates>
   </LineString>
   </Placemark>
   <Placemark>
   <name>URPSS</name>
   <Style><LineStyle><color>ffff0000</color><width>2</width></LineStyle></Style>
   <LineString>
   <coordinates>
   30.893333,50.344722,0 2.0784,41.2969,0
   </coordinates>
   </LineString>
   </Placemark>
   <Placemark>
   <name>4XELD</name>
   <Style><LineStyle><color>ffff0000</color><width>2</width></LineStyle></Style>
   <LineString>
   <coordinates>
   34.885556,32.009444,0 2.0784,41.2969,0
   </coordinates>
   </LineString>
   </Placemark>
   <Placemark>
   <name>EIEBA</name>
   <Style><LineStyle><color>ffff0000</color><width>2</width></LineStyle></Style>
   <LineString>
   <coordinates>
   -1.327778,52.831111,0 2.0784,41.2969,0
   </coordinates>
   </LineString>
   </Placemark>
   <Placemark>
   <name>ECLZE</name>
   <Style><LineStyle><color>ff00ffff</color><width>2</width></LineStyle></Style>
   <LineString>
   <coordinates>
   3.086944,50.563333,0 2.0784,41.2969,0
   </coordinates>
   </LineString>
   </Placemark>
   <Placemark>
   <name>DAISW</name>
   <Style><LineStyle><color>ff00ffff</color><width>2</width></LineStyle></Style>
   <LineString>
   <coordinates>
   8.570556,50.033333,0 2.0784,41.2969,0
   </coordinates>
   </LineString>
   </Placemark>
   <Placemark>
   <name>PHXRX</name>
   <Style><LineStyle><color>ff00ffff</color><width>2</width></LineStyle></Style>
   <LineString>
   <coordinates>
   5.374444,51.45,0 2.0784,41.2969,0
   </coordinates>
   </LineString>
   </Placemark>
   <Placemark>
   <name>TCJVM</name>
   <Style><LineStyle><color>ffff0000</color><width>2</width></LineStyle></Style>
   <LineString>
   <coordinates>
   29.309167,40.898333,0 2.0784,41.2969,0
   </coordinates>
   </LineString>
   </Placemark>
   <Placemark>
   <name>ECLVP</name>
   <Style><LineStyle><color>ff00ffff</color><width>2</width></LineStyle></Style>
   <LineString>
   <coordinates>
   14.26,50.100833,0 2.0784,41.2969,0
   </coordinates>
   </LineString>
   </Placemark>
   <Placemark>
   <name>URPSO</name>
   <Style><LineStyle><color>ffff0000</color><width>2</width></LineStyle></Style>
   <LineString>
   <coordinates>
   30.893333,50.344722,0 2.0784,41.2969,0
   </coordinates>
   </LineString>
   </Placemark>
   <Placemark>
   <name>ECLRM</name>
   <Style><LineStyle><color>ffff0000</color><width>2</width></LineStyle></Style>
   <LineString>
   <coordinates>
   -1.748056,52.453889,0 2.0784,41.2969,0
   </coordinates>
   </LineString>
   </Placemark>
   <Placemark>
   <name>A7AEC</name>
   <Style><LineStyle><color>ffff0000</color><width>2</width></LineStyle></Style>
   <LineString>
   <coordinates>
   51.608333,25.274444,0 2.0784,41.2969,0
   </coordinates>
   </LineString>
   </Placemark>
   <Placemark>
   <name>LNDYB</name>
   <Style><LineStyle><color>ff00ffff</color><width>2</width></LineStyle></Style>
   <LineString>
   <coordinates>
   12.291111,57.66,0 2.0784,41.2969,0
   </coordinates>
   </LineString>
   </Placemark>
   <Placemark>
   <name>A6EOP</name>
   <Style><LineStyle><color>ffff0000</color><width>2</width></LineStyle></Style>
   <LineString>
   <coordinates>
   55.36,25.249167,0 2.0784,41.2969,0
   </coordinates>
   </LineString>
   </Placemark>
   <Placemark>
   <name>DAKNQ</name>
   <Style><LineStyle><color>ff00ffff</color><width>2</width></LineStyle></Style>
   <LineString>
   <coordinates>
   13.287778,52.559722,0 2.0784,41.2969,0
   </coordinates>
   </LineString>
   </Placemark>
   <Placemark>
   <name>DAGWE</name>
   <Style><LineStyle><color>ff00ffff</color><width>2</width></LineStyle></Style>
   <LineString>
   <coordinates>
   9.988333,53.630278,0 2.0784,41.2969,0
   </coordinates>
   </LineString>
   </Placemark>
   <Placemark>
   <name>OKNEN</name>
   <Style><LineStyle><color>ff00ffff</color><width>2</width></LineStyle></Style>
   <LineString>
   <coordinates>
   14.26,50.100833,0 2.0784,41.2969,0
   </coordinates>
   </LineString>
   </Placemark>
   <Placemark>
   <name>EIENL</name>
   <Style><LineStyle><color>ffff0000</color><width>2</width></LineStyle></Style>
   <LineString>
   <coordinates>
   -8.040833,31.608611,0 2.0784,41.2969,0
   </coordinates>
   </LineString>
   </Placemark>
   <Placemark>
   <name>TCJHZ</name>
   <Style><LineStyle><color>ffff0000</color><width>2</width></LineStyle></Style>
   <LineString>
   <coordinates>
   28.814167,40.976111,0 2.0784,41.2969,0
   </coordinates>
   </LineString>
   </Placemark>
   <Placemark>
   <name>EIDHT</name>
   <Style><LineStyle><color>ff00ffff</color><width>2</width></LineStyle></Style>
   <LineString>
   <coordinates>
   25.287778,54.636944,0 2.0784,41.2969,0
   </coordinates>
   </LineString>
   </Placemark>
   <Placemark>
   <name>TCCPG</name>
   <Style><LineStyle><color>ffff0000</color><width>2</width></LineStyle></Style>
   <LineString>
   <coordinates>
   29.309167,40.898333,0 2.0784,41.2969,0
   </coordinates>
   </LineString>
   </Placemark>
   <Placemark>
   <name>SUGCE</name>
   <Style><LineStyle><color>ffff0000</color><width>2</width></LineStyle></Style>
   <LineString>
   <coordinates>
   31.413889,30.111389,0 2.0784,41.2969,0
   </coordinates>
   </LineString>
   </Placemark>
   <Placemark>
   <name>GEUUY</name>
   <Style><LineStyle><color>ffff0000</color><width>2</width></LineStyle></Style>
   <LineString>
   <coordinates>
   -0.461389,51.4775,0 2.0784,41.2969,0
   </coordinates>
   </LineString>
   </Placemark>
   <Placemark>
   <name>ECMEA</name>
   <Style><LineStyle><color>ffff0000</color><width>2</width></LineStyle></Style>
   <LineString>
   <coordinates>
   -4.977778,33.927222,0 2.0784,41.2969,0
   </coordinates>
   </LineString>
   </Placemark>
   <Placemark>
   <name>ECLTG</name>
   <Style><LineStyle><color>ffff0000</color><width>2</width></LineStyle></Style>
   <LineString>
   <coordinates>
   12.278333,53.919167,0 2.0784,41.2969,0
   </coordinates>
   </LineString>
   </Placemark>
   <Placemark>
   <name>DAIRA</name>
   <Style><LineStyle><color>ff00ffff</color><width>2</width></LineStyle></Style>
   <LineString>
   <coordinates>
   11.786111,48.353889,0 2.0784,41.2969,0
   </coordinates>
   </LineString>
   </Placemark>
   <Placemark>
   <name>ECJYX</name>
   <Style><LineStyle><color>ff00ffff</color><width>2</width></LineStyle></Style>
   <LineString>
   <coordinates>
   4.764167,52.308056,0 2.0784,41.2969,0
   </coordinates>
   </LineString>
   </Placemark>
   <Placemark>
   <name>GEZPL</name>
   <Style><LineStyle><color>ffff0000</color><width>2</width></LineStyle></Style>
   <LineString>
   <coordinates>
   -0.190278,51.148056,0 2.0784,41.2969,0
   </coordinates>
   </LineString>
   </Placemark>
   <Placemark>
   <name>EIFJN</name>
   <Style><LineStyle><color>ff00ffff</color><width>2</width></LineStyle></Style>
   <LineString>
   <coordinates>
   13.500556,52.362222,0 2.0784,41.2969,0
   </coordinates>
   </LineString>
   </Placemark>
   <Placemark>
   <name>PHXRD</name>
   <Style><LineStyle><color>ff00ffff</color><width>2</width></LineStyle></Style>
   <LineString>
   <coordinates>
   4.764167,52.308056,0 2.0784,41.2969,0
   </coordinates>
   </LineString>
   </Placemark>
   <Placemark>
   <name>OOSSW</name>
   <Style><LineStyle><color>ff00ffff</color><width>2</width></LineStyle></Style>
   <LineString>
   <coordinates>
   4.484444,50.901389,0 2.0784,41.2969,0
   </coordinates>
   </LineString>
   </Placemark>
   <Placemark>
   <name>GEUYB</name>
   <Style><LineStyle><color>ffff0000</color><width>2</width></LineStyle></Style>
   <LineString>
   <coordinates>
   -0.190278,51.148056,0 2.0784,41.2969,0
   </coordinates>
   </LineString>
   </Placemark>
   <Placemark>
   <name>DAISE</name>
   <Style><LineStyle><color>ff00ffff</color><width>2</width></LineStyle></Style>
   <LineString>
   <coordinates>
   8.570556,50.033333,0 2.0784,41.2969,0
   </coordinates>
   </LineString>
   </Placemark>
   <Placemark>
   <name>N969AV</name>
   <Style><LineStyle><color>ffff0000</color><width>2</width></LineStyle></Style>
   <LineString>
   <coordinates>
   -74.15,4.7,0 2.0784,41.2969,0
   </coordinates>
   </LineString>
   </Placemark>
   <Placemark>
   <name>A6AIN</name>
   <Style><LineStyle><color>ffff0000</color><width>2</width></LineStyle></Style>
   <LineString>
   <coordinates>
   -0.461389,51.4775,0 2.0784,41.2969,0
   </coordinates>
   </LineString>
   </Placemark>
   <Placemark>
   <name>ECHOB</name>
   <Style><LineStyle><color>ffff0000</color><width>2</width></LineStyle></Style>
   <LineString>
   <coordinates>
   18.723333,42.404722,0 2.0784,41.2969,0
   </coordinates>
   </LineString>
   </Placemark>
   <Placemark>
   <name>EIFJL</name>
   <Style><LineStyle><color>ff00ffff</color><width>2</width></LineStyle></Style>
   <LineString>
   <coordinates>
   5.218056,60.293611,0 2.0784,41.2969,0
   </coordinates>
   </LineString>
   </Placemark>
   <Placemark>
   <name>ECMGY</name>
   <Style><LineStyle><color>ff00ffff</color><width>2</width></LineStyle></Style>
   <LineString>
   <coordinates>
   20.967222,52.165833,0 2.0784,41.2969,0
   </coordinates>
   </LineString>
   </Placemark>
   <Placemark>
   <name>EIDAM</name>
   <Style><LineStyle><color>ffff0000</color><width>2</width></LineStyle></Style>
   <LineString>
   <coordinates>
   0.235,51.885,0 2.0784,41.2969,0
   </coordinates>
   </LineString>
   </Placemark>
   <Placemark>
   <name>EIFJM</name>
   <Style><LineStyle><color>ff00ffff</color><width>2</width></LineStyle></Style>
   <LineString>
   <coordinates>
   17.918611,59.651944,0 2.0784,41.2969,0
   </coordinates>
   </LineString>
   </Placemark>
   <Placemark>
   <name>DAISR</name>
   <Style><LineStyle><color>ff00ffff</color><width>2</width></LineStyle></Style>
   <LineString>
   <coordinates>
   8.570556,50.033333,0 2.0784,41.2969,0
   </coordinates>
   </LineString>
   </Placemark>
   <Placemark>
   <name>OYRUP</name>
   <Style><LineStyle><color>ffff0000</color><width>2</width></LineStyle></Style>
   <LineString>
   <coordinates>
   -16.341667,28.482778,0 2.0784,41.2969,0
   </coordinates>
   </LineString>
   </Placemark>
   <Placemark>
   <name>EIEFW</name>
   <Style><LineStyle><color>ff00ffff</color><width>2</width></LineStyle></Style>
   <LineString>
   <coordinates>
   4.484444,50.901389,0 2.0784,41.2969,0
   </coordinates>
   </LineString>
   </Placemark>
   <Placemark>
   <name>LVCSX</name>
   <Style><LineStyle><color>ffff0000</color><width>2</width></LineStyle></Style>
   <LineString>
   <coordinates>
   -58.535833,-34.822222,0 2.0784,41.2969,0
   </coordinates>
   </LineString>
   </Placemark>
   <Placemark>
   <name>PHBXG</name>
   <Style><LineStyle><color>ff00ffff</color><width>2</width></LineStyle></Style>
   <LineString>
   <coordinates>
   4.764167,52.308056,0 2.0784,41.2969,0
   </coordinates>
   </LineString>
   </Placemark>
   <Placemark>
   <name>VQBBG</name>
   <Style><LineStyle><color>ffff0000</color><width>2</width></LineStyle></Style>
   <LineString>
   <coordinates>
   37.413056,55.9725,0 2.0784,41.2969,0
   </coordinates>
   </LineString>
   </Placemark>
   <Placemark>
   <name>PTMSV</name>
   <Style><LineStyle><color>ffff0000</color><width>2</width></LineStyle></Style>
   <LineString>
   <coordinates>
   -46.47,-23.433333,0 2.0784,41.2969,0
   </coordinates>
   </LineString>
   </Placemark>
   <Placemark>
   <name>CNNMH</name>
   <Style><LineStyle><color>ffff0000</color><width>2</width></LineStyle></Style>
   <LineString>
   <coordinates>
   -7.581667,33.364167,0 2.0784,41.2969,0
   </coordinates>
   </LineString>
   </Placemark>
   <Placemark>
   <name>EIFJK</name>
   <Style><LineStyle><color>ff00ffff</color><width>2</width></LineStyle></Style>
   <LineString>
   <coordinates>
   24.963333,60.317222,0 2.0784,41.2969,0
   </coordinates>
   </LineString>
   </Placemark>
   <Placemark>
   <name>ECMBF</name>
   <Style><LineStyle><color>ff00ffff</color><width>2</width></LineStyle></Style>
   <LineString>
   <coordinates>
   11.078056,49.498611,0 2.0784,41.2969,0
   </coordinates>
   </LineString>
   </Placemark>
   <Placemark>
   <name>ECMLE</name>
   <Style><LineStyle><color>ff00ffff</color><width>2</width></LineStyle></Style>
   <LineString>
   <coordinates>
   5.374444,51.45,0 2.0784,41.2969,0
   </coordinates>
   </LineString>
   </Placemark>
   <Placemark>
   <name>TCJIP</name>
   <Style><LineStyle><color>ffff0000</color><width>2</width></LineStyle></Style>
   <LineString>
   <coordinates>
   28.814167,40.976111,0 2.0784,41.2969,0
   </coordinates>
   </LineString>
   </Placemark>
   <Placemark>
   <name>TCDCF</name>
   <Style><LineStyle><color>ffff0000</color><width>2</width></LineStyle></Style>
   <LineString>
   <coordinates>
   29.309167,40.898333,0 2.0784,41.2969,0
   </coordinates>
   </LineString>
   </Placemark>
   <Placemark>
   <name>ECLZN</name>
   <Style><LineStyle><color>ffff0000</color><width>2</width></LineStyle></Style>
   <LineString>
   <coordinates>
   -1.689722,55.038056,0 2.0784,41.2969,0
   </coordinates>
   </LineString>
   </Placemark>
   <Placemark>
   <name>VPBAS</name>
   <Style><LineStyle><color>ffff0000</color><width>2</width></LineStyle></Style>
   <LineString>
   <coordinates>
   37.906389,55.408611,0 2.0784,41.2969,0
   </coordinates>
   </LineString>
   </Placemark>
   <Placemark>
   <name>ECJFF</name>
   <Style><LineStyle><color>ffff0000</color><width>2</width></LineStyle></Style>
   <LineString>
   <coordinates>
   -13.863889,28.452778,0 2.0784,41.2969,0
   </coordinates>
   </LineString>
   </Placemark>
   <Placemark>
   <name>LNRRG</name>
   <Style><LineStyle><color>ff00ffff</color><width>2</width></LineStyle></Style>
   <LineString>
   <coordinates>
   11.083889,60.202778,0 2.0784,41.2969,0
   </coordinates>
   </LineString>
   </Placemark>
   <Placemark>
   <name>N483CM</name>
   <Style><LineStyle><color>ffff0000</color><width>2</width></LineStyle></Style>
   <LineString>
   <coordinates>
   18.268333,42.561389,0 2.0784,41.2969,0
   </coordinates>
   </LineString>
   </Placemark>
   <Placemark>
   <name>ECMBY</name>
   <Style><LineStyle><color>ffff0000</color><width>2</width></LineStyle></Style>
   <LineString>
   <coordinates>
   -2.849722,53.333611,0 2.0784,41.2969,0
   </coordinates>
   </LineString>
   </Placemark>
   <Placemark>
   <name>DIERF</name>
   <Style><LineStyle><color>ff00ffff</color><width>2</width></LineStyle></Style>
   <LineString>
   <coordinates>
   11.078056,49.498611,0 2.0784,41.2969,0
   </coordinates>
   </LineString>
   </Placemark>
   <Placemark>
   <name>DAIRD</name>
   <Style><LineStyle><color>ff00ffff</color><width>2</width></LineStyle></Style>
   <LineString>
   <coordinates>
   11.786111,48.353889,0 2.0784,41.2969,0
   </coordinates>
   </LineString>
   </Placemark>
   <Placemark>
   <name>ECKCU</name>
   <Style><LineStyle><color>ff00ffff</color><width>2</width></LineStyle></Style>
   <LineString>
   <coordinates>
   4.484444,50.901389,0 2.0784,41.2969,0
   </coordinates>
   </LineString>
   </Placemark>
   <Placemark>
   <name>GTTOE</name>
   <Style><LineStyle><color>ffff0000</color><width>2</width></LineStyle></Style>
   <LineString>
   <coordinates>
   -0.461389,51.4775,0 2.0784,41.2969,0
   </coordinates>
   </LineString>
   </Placemark>
   <Placemark>
   <name>ECLAA</name>
   <Style><LineStyle><color>ff00ffff</color><width>2</width></LineStyle></Style>
   <LineString>
   <coordinates>
   9.988333,53.630278,0 2.0784,41.2969,0
   </coordinates>
   </LineString>
   </Placemark>
   <Placemark>
   <name>EIEPG</name>
   <Style><LineStyle><color>ffff0000</color><width>2</width></LineStyle></Style>
   <LineString>
   <coordinates>
   -2.849722,53.333611,0 2.0784,41.2969,0
   </coordinates>
   </LineString>
   </Placemark>
   <Placemark>
   <name>ECMKN</name>
   <Style><LineStyle><color>ff00ffff</color><width>2</width></LineStyle></Style>
   <LineString>
   <coordinates>
   9.683611,52.460278,0 2.0784,41.2969,0
   </coordinates>
   </LineString>
   </Placemark>
   <Placemark>
   <name>CNRGG</name>
   <Style><LineStyle><color>ffff0000</color><width>2</width></LineStyle></Style>
   <LineString>
   <coordinates>
   -7.581667,33.364167,0 2.0784,41.2969,0
   </coordinates>
   </LineString>
   </Placemark>
   <Placemark>
   <name>DAIDQ</name>
   <Style><LineStyle><color>ff00ffff</color><width>2</width></LineStyle></Style>
   <LineString>
   <coordinates>
   8.570556,50.033333,0 2.0784,41.2969,0
   </coordinates>
   </LineString>
   </Placemark>
   <Placemark>
   <name>ECMGZ</name>
   <Style><LineStyle><color>ffff0000</color><width>2</width></LineStyle></Style>
   <LineString>
   <coordinates>
   -0.190278,51.148056,0 2.0784,41.2969,0
   </coordinates>
   </LineString>
   </Placemark>
   <Placemark>
   <name>GEZTA</name>
   <Style><LineStyle><color>ffff0000</color><width>2</width></LineStyle></Style>
   <LineString>
   <coordinates>
   -0.190278,51.148056,0 2.0784,41.2969,0
   </coordinates>
   </LineString>
   </Placemark>
   <Placemark>
   <name>ECLRN</name>
   <Style><LineStyle><color>ff00ffff</color><width>2</width></LineStyle></Style>
   <LineString>
   <coordinates>
   13.099444,38.181944,0 2.0784,41.2969,0
   </coordinates>
   </LineString>
   </Placemark>
   <Placemark>
   <name>ECHQI</name>
   <Style><LineStyle><color>ff00ffff</color><width>2</width></LineStyle></Style>
   <LineString>
   <coordinates>
   16.765,41.138056,0 2.0784,41.2969,0
   </coordinates>
   </LineString>
   </Placemark>
   <Placemark>
   <name>ECHQJ</name>
   <Style><LineStyle><color>ff00ffff</color><width>2</width></LineStyle></Style>
   <LineString>
   <coordinates>
   16.569722,48.110278,0 2.0784,41.2969,0
   </coordinates>
   </LineString>
   </Placemark>
   <Placemark>
   <name>ECMLD</name>
   <Style><LineStyle><color>ff00ffff</color><width>2</width></LineStyle></Style>
   <LineString>
   <coordinates>
   11.786111,48.353889,0 2.0784,41.2969,0
   </coordinates>
   </LineString>
   </Placemark>
   <Placemark>
   <name>ECMJR</name>
   <Style><LineStyle><color>ff00ffff</color><width>2</width></LineStyle></Style>
   <LineString>
   <coordinates>
   14.290833,40.884444,0 2.0784,41.2969,0
   </coordinates>
   </LineString>
   </Placemark>
   <Placemark>
   <name>ECKRN</name>
   <Style><LineStyle><color>ffff0000</color><width>2</width></LineStyle></Style>
   <LineString>
   <coordinates>
   -8.040833,31.608611,0 2.0784,41.2969,0
   </coordinates>
   </LineString>
   </Placemark>
   <Placemark>
   <name>PHBXE</name>
   <Style><LineStyle><color>ff00ffff</color><width>2</width></LineStyle></Style>
   <LineString>
   <coordinates>
   4.764167,52.308056,0 2.0784,41.2969,0
   </coordinates>
   </LineString>
   </Placemark>
   <Placemark>
   <name>ECLRM</name>
   <Style><LineStyle><color>ffff0000</color><width>2</width></LineStyle></Style>
   <LineString>
   <coordinates>
   -3.343333,51.396667,0 2.0784,41.2969,0
   </coordinates>
   </LineString>
   </Placemark>
   <Placemark>
   <name>GOZBW</name>
   <Style><LineStyle><color>ffff0000</color><width>2</width></LineStyle></Style>
   <LineString>
   <coordinates>
   -1.660833,53.866111,0 2.0784,41.2969,0
   </coordinates>
   </LineString>
   </Placemark>
   <Placemark>
   <name>ECMMH</name>
   <Style><LineStyle><color>ffff0000</color><width>2</width></LineStyle></Style>
   <LineString>
   <coordinates>
   -16.341667,28.482778,0 2.0784,41.2969,0
   </coordinates>
   </LineString>
   </Placemark>
   <Placemark>
   <name>EIDHX</name>
   <Style><LineStyle><color>ffff0000</color><width>2</width></LineStyle></Style>
   <LineString>
   <coordinates>
   0.235,51.885,0 2.0784,41.2969,0
   </coordinates>
   </LineString>
   </Placemark>
   <Placemark>
   <name>EIDHO</name>
   <Style><LineStyle><color>ff00ffff</color><width>2</width></LineStyle></Style>
   <LineString>
   <coordinates>
   16.903611,58.788611,0 2.0784,41.2969,0
   </coordinates>
   </LineString>
   </Placemark>
   <Placemark>
   <name>ECMHS</name>
   <Style><LineStyle><color>ffff0000</color><width>2</width></LineStyle></Style>
   <LineString>
   <coordinates>
   -13.605278,28.945556,0 2.0784,41.2969,0
   </coordinates>
   </LineString>
   </Placemark>
   <Placemark>
   <name>DAISL</name>
   <Style><LineStyle><color>ff00ffff</color><width>2</width></LineStyle></Style>
   <LineString>
   <coordinates>
   8.570556,50.033333,0 2.0784,41.2969,0
   </coordinates>
   </LineString>
   </Placemark>
   <Placemark>
   <name>HALPX</name>
   <Style><LineStyle><color>ffff0000</color><width>2</width></LineStyle></Style>
   <LineString>
   <coordinates>
   23.692222,46.789167,0 2.0784,41.2969,0
   </coordinates>
   </LineString>
   </Placemark>
   <Placemark>
   <name>HALWY</name>
   <Style><LineStyle><color>ff00ffff</color><width>2</width></LineStyle></Style>
   <LineString>
   <coordinates>
   23.971111,56.923611,0 2.0784,41.2969,0
   </coordinates>
   </LineString>
   </Placemark>
   <Placemark>
   <name>LNDYP</name>
   <Style><LineStyle><color>ff00ffff</color><width>2</width></LineStyle></Style>
   <LineString>
   <coordinates>
   17.918611,59.651944,0 2.0784,41.2969,0
   </coordinates>
   </LineString>
   </Placemark>
   <Placemark>
   <name>DABZA</name>
   <Style><LineStyle><color>ff00ffff</color><width>2</width></LineStyle></Style>
   <LineString>
   <coordinates>
   6.757222,51.280833,0 2.0784,41.2969,0
   </coordinates>
   </LineString>
   </Placemark>
   <Placemark>
   <name>GEZIM</name>
   <Style><LineStyle><color>ff00ffff</color><width>2</width></LineStyle></Style>
   <LineString>
   <coordinates>
   13.500556,52.362222,0 2.0784,41.2969,0
   </coordinates>
   </LineString>
   </Placemark>
   <Placemark>
   <name>ECLQM</name>
   <Style><LineStyle><color>ff00ffff</color><width>2</width></LineStyle></Style>
   <LineString>
   <coordinates>
   13.287778,52.559722,0 2.0784,41.2969,0
   </coordinates>
   </LineString>
   </Placemark>
   <Placemark>
   <name>DAIQK</name>
   <Style><LineStyle><color>ff00ffff</color><width>2</width></LineStyle></Style>
   <LineString>
   <coordinates>
   7.142778,50.865833,0 2.0784,41.2969,0
   </coordinates>
   </LineString>
   </Placemark>
   <Placemark>
   <name>ECLRG</name>
   <Style><LineStyle><color>ffff0000</color><width>2</width></LineStyle></Style>
   <LineString>
   <coordinates>
   -1.660833,53.866111,0 2.0784,41.2969,0
   </coordinates>
   </LineString>
   </Placemark>
   <Placemark>
   <name>ECMFB</name>
   <Style><LineStyle><color>ff00ffff</color><width>2</width></LineStyle></Style>
   <LineString>
   <coordinates>
   11.083889,60.202778,0 2.0784,41.2969,0
   </coordinates>
   </LineString>
   </Placemark>
   <Placemark>
   <name>DASXJ</name>
   <Style><LineStyle><color>ff00ffff</color><width>2</width></LineStyle></Style>
   <LineString>
   <coordinates>
   6.757222,51.280833,0 2.0784,41.2969,0
   </coordinates>
   </LineString>
   </Placemark>
   <Placemark>
   <name>ECMMU</name>
   <Style><LineStyle><color>ffff0000</color><width>2</width></LineStyle></Style>
   <LineString>
   <coordinates>
   -15.386667,27.931944,0 2.0784,41.2969,0
   </coordinates>
   </LineString>
   </Placemark>
   <Placemark>
   <name>ECLUT</name>
   <Style><LineStyle><color>ffff0000</color><width>2</width></LineStyle></Style>
   <LineString>
   <coordinates>
   -16.341667,28.482778,0 2.0784,41.2969,0
   </coordinates>
   </LineString>
   </Placemark>
   <Placemark>
   <name>GEUUT</name>
   <Style><LineStyle><color>ffff0000</color><width>2</width></LineStyle></Style>
   <LineString>
   <coordinates>
   -0.461389,51.4775,0 2.0784,41.2969,0
   </coordinates>
   </LineString>
   </Placemark>
   <Placemark>
   <name>CGDEJ</name>
   <Style><LineStyle><color>ff00ffff</color><width>2</width></LineStyle></Style>
   <LineString>
   <coordinates>
   4.437222,51.956944,0 2.0784,41.2969,0
   </coordinates>
   </LineString>
   </Placemark>
   <Placemark>
   <name>OEIEW</name>
   <Style><LineStyle><color>ff00ffff</color><width>2</width></LineStyle></Style>
   <LineString>
   <coordinates>
   16.569722,48.110278,0 2.0784,41.2969,0
   </coordinates>
   </LineString>
   </Placemark>
   <Placemark>
   <name>EIEFN</name>
   <Style><LineStyle><color>ff00ffff</color><width>2</width></LineStyle></Style>
   <LineString>
   <coordinates>
   4.484444,50.901389,0 2.0784,41.2969,0
   </coordinates>
   </LineString>
   </Placemark>
   <Placemark>
   <name>GEZEG</name>
   <Style><LineStyle><color>ffff0000</color><width>2</width></LineStyle></Style>
   <LineString>
   <coordinates>
   -0.190278,51.148056,0 2.0784,41.2969,0
   </coordinates>
   </LineString>
   </Placemark>
   <Placemark>
   <name>A7ACD</name>
   <Style><LineStyle><color>ffff0000</color><width>2</width></LineStyle></Style>
   <LineString>
   <coordinates>
   51.608333,25.274444,0 2.0784,41.2969,0
   </coordinates>
   </LineString>
   </Placemark>
   <Placemark>
   <name>HALYG</name>
   <Style><LineStyle><color>ff00ffff</color><width>2</width></LineStyle></Style>
   <LineString>
   <coordinates>
   19.08,50.474167,0 2.0784,41.2969,0
   </coordinates>
   </LineString>
   </Placemark>
   <Placemark>
   <name>GEZBU</name>
   <Style><LineStyle><color>ffff0000</color><width>2</width></LineStyle></Style>
   <LineString>
   <coordinates>
   0.693333,51.570278,0 2.0784,41.2969,0
   </coordinates>
   </LineString>
   </Placemark>
   <Placemark>
   <name>OHLZB</name>
   <Style><LineStyle><color>ff00ffff</color><width>2</width></LineStyle></Style>
   <LineString>
   <coordinates>
   24.963333,60.317222,0 2.0784,41.2969,0
   </coordinates>
   </LineString>
   </Placemark>
   <Placemark>
   <name>GEUYC</name>
   <Style><LineStyle><color>ffff0000</color><width>2</width></LineStyle></Style>
   <LineString>
   <coordinates>
   -0.461389,51.4775,0 2.0784,41.2969,0
   </coordinates>
   </LineString>
   </Placemark>
   <Placemark>
   <name>A6EEH</name>
   <Style><LineStyle><color>ffff0000</color><width>2</width></LineStyle></Style>
   <LineString>
   <coordinates>
   55.36,25.249167,0 2.0784,41.2969,0
   </coordinates>
   </LineString>
   </Placemark>
   <Placemark>
   <name>OELEF</name>
   <Style><LineStyle><color>ff00ffff</color><width>2</width></LineStyle></Style>
   <LineString>
   <coordinates>
   16.569722,48.110278,0 2.0784,41.2969,0
   </coordinates>
   </LineString>
   </Placemark>
   <Placemark>
   <name>OOSSK</name>
   <Style><LineStyle><color>ff00ffff</color><width>2</width></LineStyle></Style>
   <LineString>
   <coordinates>
   4.484444,50.901389,0 2.0784,41.2969,0
   </coordinates>
   </LineString>
   </Placemark>
   <Placemark>
   <name>EIEFI</name>
   <Style><LineStyle><color>ffff0000</color><width>2</width></LineStyle></Style>
   <LineString>
   <coordinates>
   -6.27,53.421389,0 2.0784,41.2969,0
   </coordinates>
   </LineString>
   </Placemark>
   <Placemark>
   <name>GEZFY</name>
   <Style><LineStyle><color>ffff0000</color><width>2</width></LineStyle></Style>
   <LineString>
   <coordinates>
   -1.689722,55.038056,0 2.0784,41.2969,0
   </coordinates>
   </LineString>
   </Placemark>
   <Placemark>
   <name>CSTRN</name>
   <Style><LineStyle><color>ff00ffff</color><width>2</width></LineStyle></Style>
   <LineString>
   <coordinates>
   17.918611,59.651944,0 2.0784,41.2969,0
   </coordinates>
   </LineString>
   </Placemark>
   <Placemark>
   <name>EIDHH</name>
   <Style><LineStyle><color>ffff0000</color><width>2</width></LineStyle></Style>
   <LineString>
   <coordinates>
   -13.605278,28.945556,0 2.0784,41.2969,0
   </coordinates>
   </LineString>
   </Placemark>
   <Placemark>
   <name>HALYL</name>
   <Style><LineStyle><color>ffff0000</color><width>2</width></LineStyle></Style>
   <LineString>
   <coordinates>
   21.621389,41.961667,0 2.0784,41.2969,0
   </coordinates>
   </LineString>
   </Placemark>
   <Placemark>
   <name>EIDWA</name>
   <Style><LineStyle><color>ffff0000</color><width>2</width></LineStyle></Style>
   <LineString>
   <coordinates>
   -4.594444,55.509444,0 2.0784,41.2969,0
   </coordinates>
   </LineString>
   </Placemark>
   <Placemark>
   <name>ECLOB</name>
   <Style><LineStyle><color>ff00ffff</color><width>2</width></LineStyle></Style>
   <LineString>
   <coordinates>
   4.764167,52.308056,0 2.0784,41.2969,0
   </coordinates>
   </LineString>
   </Placemark>
   <Placemark>
   <name>GEZFG</name>
   <Style><LineStyle><color>ffff0000</color><width>2</width></LineStyle></Style>
   <LineString>
   <coordinates>
   -2.849722,53.333611,0 2.0784,41.2969,0
   </coordinates>
   </LineString>
   </Placemark>
   <Placemark>
   <name>EIDLH</name>
   <Style><LineStyle><color>ffff0000</color><width>2</width></LineStyle></Style>
   <LineString>
   <coordinates>
   -15.386667,27.931944,0 2.0784,41.2969,0
   </coordinates>
   </LineString>
   </Placemark>
   <Placemark>
   <name>HALYO</name>
   <Style><LineStyle><color>ffff0000</color><width>2</width></LineStyle></Style>
   <LineString>
   <coordinates>
   23.408333,42.695,0 2.0784,41.2969,0
   </coordinates>
   </LineString>
   </Placemark>
   <Placemark>
   <name>ECLZO</name>
   <Style><LineStyle><color>ff00ffff</color><width>2</width></LineStyle></Style>
   <LineString>
   <coordinates>
   12.656111,55.618056,0 2.0784,41.2969,0
   </coordinates>
   </LineString>
   </Placemark>
   <Placemark>
   <name>N900AL</name>
   <Style><LineStyle><color>ffff0000</color><width>2</width></LineStyle></Style>
   <LineString>
   <coordinates>
   39.203333,-6.875556,0 2.0784,41.2969,0
   </coordinates>
   </LineString>
   </Placemark>
   <Placemark>
   <name>DAIRB</name>
   <Style><LineStyle><color>ff00ffff</color><width>2</width></LineStyle></Style>
   <LineString>
   <coordinates>
   11.786111,48.353889,0 2.0784,41.2969,0
   </coordinates>
   </LineString>
   </Placemark>
   <Placemark>
   <name>ECMKT</name>
   <Style><LineStyle><color>ff00ffff</color><width>2</width></LineStyle></Style>
   <LineString>
   <coordinates>
   24.963333,60.317222,0 2.0784,41.2969,0
   </coordinates>
   </LineString>
   </Placemark>
   <Placemark>
   <name>EIFIN</name>
   <Style><LineStyle><color>ffff0000</color><width>2</width></LineStyle></Style>
   <LineString>
   <coordinates>
   -2.275,53.353889,0 2.0784,41.2969,0
   </coordinates>
   </LineString>
   </Placemark>
   <Placemark>
   <name>GDBCI</name>
   <Style><LineStyle><color>ffff0000</color><width>2</width></LineStyle></Style>
   <LineString>
   <coordinates>
   -0.190278,51.148056,0 2.0784,41.2969,0
   </coordinates>
   </LineString>
   </Placemark>
   <Placemark>
   <name>EIFHS</name>
   <Style><LineStyle><color>ff00ffff</color><width>2</width></LineStyle></Style>
   <LineString>
   <coordinates>
   11.083889,60.202778,0 2.0784,41.2969,0
   </coordinates>
   </LineString>
   </Placemark>
   <Placemark>
   <name>GEZIK</name>
   <Style><LineStyle><color>ffff0000</color><width>2</width></LineStyle></Style>
   <LineString>
   <coordinates>
   -2.719167,51.382778,0 2.0784,41.2969,0
   </coordinates>
   </LineString>
   </Placemark>
   <Placemark>
   <name>TFBRO</name>
   <Style><LineStyle><color>ff00ffff</color><width>2</width></LineStyle></Style>
   <LineString>
   <coordinates>
   -22.605556,63.985,0 2.0784,41.2969,0
   </coordinates>
   </LineString>
   </Placemark>
   <Placemark>
   <name>ECLQL</name>
   <Style><LineStyle><color>ffff0000</color><width>2</width></LineStyle></Style>
   <LineString>
   <coordinates>
   -0.461389,51.4775,0 2.0784,41.2969,0
   </coordinates>
   </LineString>
   </Placemark>
   <Placemark>
   <name>EIDEE</name>
   <Style><LineStyle><color>ffff0000</color><width>2</width></LineStyle></Style>
   <LineString>
   <coordinates>
   -6.27,53.421389,0 2.0784,41.2969,0
   </coordinates>
   </LineString>
   </Placemark>
   <Placemark>
   <name>ECMGF</name>
   <Style><LineStyle><color>ff00ffff</color><width>2</width></LineStyle></Style>
   <LineString>
   <coordinates>
   8.570556,50.033333,0 2.0784,41.2969,0
   </coordinates>
   </LineString>
   </Placemark>
   <Placemark>
   <name>ERAXP</name>
   <Style><LineStyle><color>ffff0000</color><width>2</width></LineStyle></Style>
   <LineString>
   <coordinates>
   28.930833,46.927778,0 2.0784,41.2969,0
   </coordinates>
   </LineString>
   </Placemark>
   <Placemark>
   <name>EIFJL</name>
   <Style><LineStyle><color>ff00ffff</color><width>2</width></LineStyle></Style>
   <LineString>
   <coordinates>
   9.151667,55.740278,0 2.0784,41.2969,0
   </coordinates>
   </LineString>
   </Placemark>
   <Placemark>
   <name>EIFJK</name>
   <Style><LineStyle><color>ffff0000</color><width>2</width></LineStyle></Style>
   <LineString>
   <coordinates>
   -0.190278,51.148056,0 2.0784,41.2969,0
   </coordinates>
   </LineString>
   </Placemark>
   <Placemark>
   <name>YRBGA</name>
   <Style><LineStyle><color>ffff0000</color><width>2</width></LineStyle></Style>
   <LineString>
   <coordinates>
   26.085,44.571111,0 2.0784,41.2969,0
   </coordinates>
   </LineString>
   </Placemark>
   <Placemark>
   <name>TCJRF</name>
   <Style><LineStyle><color>ffff0000</color><width>2</width></LineStyle></Style>
   <LineString>
   <coordinates>
   28.814167,40.976111,0 2.0784,41.2969,0
   </coordinates>
   </LineString>
   </Placemark>
   <Placemark>
   <name>ECLRY</name>
   <Style><LineStyle><color>ff00ffff</color><width>2</width></LineStyle></Style>
   <LineString>
   <coordinates>
   11.786111,48.353889,0 2.0784,41.2969,0
   </coordinates>
   </LineString>
   </Placemark>
   <Placemark>
   <name>EIDAM</name>
   <Style><LineStyle><color>ffff0000</color><width>2</width></LineStyle></Style>
   <LineString>
   <coordinates>
   -6.27,53.421389,0 2.0784,41.2969,0
   </coordinates>
   </LineString>
   </Placemark>
   <Placemark>
   <name>PHBXK</name>
   <Style><LineStyle><color>ff00ffff</color><width>2</width></LineStyle></Style>
   <LineString>
   <coordinates>
   4.764167,52.308056,0 2.0784,41.2969,0
   </coordinates>
   </LineString>
   </Placemark>
   <Placemark>
   <name>EIENO</name>
   <Style><LineStyle><color>ff00ffff</color><width>2</width></LineStyle></Style>
   <LineString>
   <coordinates>
   19.261944,47.439444,0 2.0784,41.2969,0
   </coordinates>
   </LineString>
   </Placemark>
   <Placemark>
   <name>GEUUG</name>
   <Style><LineStyle><color>ffff0000</color><width>2</width></LineStyle></Style>
   <LineString>
   <coordinates>
   -0.461389,51.4775,0 2.0784,41.2969,0
   </coordinates>
   </LineString>
   </Placemark>
   <Placemark>
   <name>ECMHB</name>
   <Style><LineStyle><color>ffff0000</color><width>2</width></LineStyle></Style>
   <LineString>
   <coordinates>
   -0.190278,51.148056,0 2.0784,41.2969,0
   </coordinates>
   </LineString>
   </Placemark>
   <Placemark>
   <name>ECJFF</name>
   <Style><LineStyle><color>ffff0000</color><width>2</width></LineStyle></Style>
   <LineString>
   <coordinates>
   18.268333,42.561389,0 2.0784,41.2969,0
   </coordinates>
   </LineString>
   </Placemark>
   <Placemark>
   <name>DAISG</name>
   <Style><LineStyle><color>ff00ffff</color><width>2</width></LineStyle></Style>
   <LineString>
   <coordinates>
   8.570556,50.033333,0 2.0784,41.2969,0
   </coordinates>
   </LineString>
   </Placemark>
   <Placemark>
   <name>EIFJN</name>
   <Style><LineStyle><color>ff00ffff</color><width>2</width></LineStyle></Style>
   <LineString>
   <coordinates>
   11.083889,60.202778,0 2.0784,41.2969,0
   </coordinates>
   </LineString>
   </Placemark>
   <Placemark>
   <name>ECMKX</name>
   <Style><LineStyle><color>ff00ffff</color><width>2</width></LineStyle></Style>
   <LineString>
   <coordinates>
   6.757222,51.280833,0 2.0784,41.2969,0
   </coordinates>
   </LineString>
   </Placemark>
   <Placemark>
   <name>VPBZA</name>
   <Style><LineStyle><color>ffff0000</color><width>2</width></LineStyle></Style>
   <LineString>
   <coordinates>
   37.413056,55.9725,0 2.0784,41.2969,0
   </coordinates>
   </LineString>
   </Placemark>
   <Placemark>
   <name>EIFJM</name>
   <Style><LineStyle><color>ff00ffff</color><width>2</width></LineStyle></Style>
   <LineString>
   <coordinates>
   12.656111,55.618056,0 2.0784,41.2969,0
   </coordinates>
   </LineString>
   </Placemark>
   <Placemark>
   <name>ECLZN</name>
   <Style><LineStyle><color>ff00ffff</color><width>2</width></LineStyle></Style>
   <LineString>
   <coordinates>
   14.26,50.100833,0 2.0784,41.2969,0
   </coordinates>
   </LineString>
   </Placemark>
   <Placemark>
   <name>ECLQK</name>
   <Style><LineStyle><color>ffff0000</color><width>2</width></LineStyle></Style>
   <LineString>
   <coordinates>
   -6.27,53.421389,0 2.0784,41.2969,0
   </coordinates>
   </LineString>
   </Placemark>
   <Placemark>
   <name>ECMGE</name>
   <Style><LineStyle><color>ffff0000</color><width>2</width></LineStyle></Style>
   <LineString>
   <coordinates>
   -0.368333,51.874722,0 2.0784,41.2969,0
   </coordinates>
   </LineString>
   </Placemark>
   <Placemark>
   <name>EIDCJ</name>
   <Style><LineStyle><color>ff00ffff</color><width>2</width></LineStyle></Style>
   <LineString>
   <coordinates>
   13.500556,52.362222,0 2.0784,41.2969,0
   </coordinates>
   </LineString>
   </Placemark>
   <Placemark>
   <name>SXABE</name>
   <Style><LineStyle><color>ff00ffff</color><width>2</width></LineStyle></Style>
   <LineString>
   <coordinates>
   4.484444,50.901389,0 2.0784,41.2969,0
   </coordinates>
   </LineString>
   </Placemark>
   <Placemark>
   <name>VPBRI</name>
   <Style><LineStyle><color>ffff0000</color><width>2</width></LineStyle></Style>
   <LineString>
   <coordinates>
   37.906389,55.408611,0 2.0784,41.2969,0
   </coordinates>
   </LineString>
   </Placemark>
   <Placemark>
   <name>ECMGZ</name>
   <Style><LineStyle><color>ff00ffff</color><width>2</width></LineStyle></Style>
   <LineString>
   <coordinates>
   4.764167,52.308056,0 2.0784,41.2969,0
   </coordinates>
   </LineString>
   </Placemark>
   <Placemark>
   <name>SXDVV</name>
   <Style><LineStyle><color>ff00ffff</color><width>2</width></LineStyle></Style>
   <LineString>
   <coordinates>
   23.944444,37.936667,0 2.0784,41.2969,0
   </coordinates>
   </LineString>
   </Placemark>
   <Placemark>
   <name>EIDHT</name>
   <Style><LineStyle><color>ffff0000</color><width>2</width></LineStyle></Style>
   <LineString>
   <coordinates>
   0.235,51.885,0 2.0784,41.2969,0
   </coordinates>
   </LineString>
   </Placemark>
   <Placemark>
   <name>OYRUP</name>
   <Style><LineStyle><color>ffff0000</color><width>2</width></LineStyle></Style>
   <LineString>
   <coordinates>
   -15.386667,27.931944,0 2.0784,41.2969,0
   </coordinates>
   </LineString>
   </Placemark>
   <Placemark>
   <name>GEZWZ</name>
   <Style><LineStyle><color>ffff0000</color><width>2</width></LineStyle></Style>
   <LineString>
   <coordinates>
   -0.190278,51.148056,0 2.0784,41.2969,0
   </coordinates>
   </LineString>
   </Placemark>
   <Placemark>
   <name>YLPSH</name>
   <Style><LineStyle><color>ff00ffff</color><width>2</width></LineStyle></Style>
   <LineString>
   <coordinates>
   -22.605556,63.985,0 2.0784,41.2969,0
   </coordinates>
   </LineString>
   </Placemark>
   <Placemark>
   <name>EIDHG</name>
   <Style><LineStyle><color>ff00ffff</color><width>2</width></LineStyle></Style>
   <LineString>
   <coordinates>
   7.142778,50.865833,0 2.0784,41.2969,0
   </coordinates>
   </LineString>
   </Placemark>
   <Placemark>
   <name>ECLZZ</name>
   <Style><LineStyle><color>ffff0000</color><width>2</width></LineStyle></Style>
   <LineString>
   <coordinates>
   -0.190278,51.148056,0 2.0784,41.2969,0
   </coordinates>
   </LineString>
   </Placemark>
   <Placemark>
   <name>GEZDJ</name>
   <Style><LineStyle><color>ffff0000</color><width>2</width></LineStyle></Style>
   <LineString>
   <coordinates>
   -0.368333,51.874722,0 2.0784,41.2969,0
   </coordinates>
   </LineString>
   </Placemark>
   <Placemark>
   <name>ECMLD</name>
   <Style><LineStyle><color>ffff0000</color><width>2</width></LineStyle></Style>
   <LineString>
   <coordinates>
   -2.275,53.353889,0 2.0784,41.2969,0
   </coordinates>
   </LineString>
   </Placemark>
</Document>
</kml>
